*******************************************************************************
Ephemeris / WWW_USER Mon Mar 24 09:16:04 2025 Pasadena, USA      / Horizons    
*******************************************************************************
Target body name: 300163 (2006 VW139)             {source: JPL#20}
Center body name: Earth (399)                     {source: DE441}
Center-site name: Mauna Kea
*******************************************************************************
Start time      : A.D. 2019-Jan-05 04:06:00.0000 UT      
Stop  time      : A.D. 2019-Jan-05 16:47:00.0000 UT      
Step-size       : 1 minutes
*******************************************************************************
Target pole/equ : undefined
Target radii    : undefined                                                    
Center geodetic : 204.5278, 19.8260847, 4.21024   {E-lon(deg),Lat(deg),Alt(km)}
Center cylindric: 204.5278, 6006.35451, 2151.0229 {E-lon(deg),Dxy(km),Dz(km)}
Center pole/equ : ITRF93                          {East-longitude positive}
Center radii    : 6378.137, 6378.137, 6356.752 km {Equator_a, b, pole_c}       
Target primary  : Sun
Vis. interferer : MOON (R_eq= 1737.400) km        {source: DE441}
Rel. light bend : Sun                             {source: DE441}
Rel. lght bnd GM: 1.3271E+11 km^3/s^2                                          
Small-body perts: Yes                             {source: SB441-N16}
Atmos refraction: NO (AIRLESS)
RA format       : HMS
Time format     : CAL 
Calendar mode   : Mixed Julian/Gregorian
RTS-only print  : NO       
EOP file        : eop.250321.p250617                                           
EOP coverage    : DATA-BASED 1962-JAN-20 TO 2025-MAR-21. PREDICTS-> 2025-JUN-16
Units conversion: 1 au= 149597870.700 km, c= 299792.458 km/s, 1 day= 86400.0 s 
Table cut-offs 1: Elevation (-90.0deg=NO ),Airmass (>38.000=NO), Daylight (YES)
Table cut-offs 2: Solar elongation (  0.0,180.0=NO ),Local Hour Angle( 0.0=NO )
Table cut-offs 3: RA/DEC angular rate (     0.0=NO )                           
*******************************************************************************
Initial IAU76/J2000 heliocentric ecliptic osculating elements (au, days, deg.):
  EPOCH=  2457991.5 ! 2017-Aug-26.00 (TDB)         Residual RMS= .24052        
   EC= .2010729135113919   QR= 2.43581750533798    TP= 2457700.5743979034      
   OM= 83.18687361565334   W=  281.0057800900049   IN= 3.240211778004737       
  Equivalent ICRF heliocentric cartesian coordinates (au, au/d):
   X= 5.132894709524352E-01  Y= 2.513143937276953E+00  Z= 1.078150377913554E+00
  VX=-1.001562838274837E-02 VY= 3.317467852193382E-03 VZ= 2.080280624827025E-03
Asteroid physical parameters (km, seconds, rotational period in hours):        
   GM= n.a.                RAD= n.a.               ROTPER= 3240.               
   H= 16.21                G= .150                 B-V= n.a.                   
                           ALBEDO= n.a.            STYP= n.a.                  
*******************************************************************************
 Date__(UT)__HR:MN     R.A._________(ICRF)_________DEC
******************************************************
$$SOE
 2019-Jan-05 12:18     11 50 20.877478 +04 58 37.81162
 2019-Jan-05 12:19     11 50 20.883957 +04 58 37.81642
 2019-Jan-05 12:20     11 50 20.890433 +04 58 37.82122
 2019-Jan-05 12:21     11 50 20.896907 +04 58 37.82602
 2019-Jan-05 12:22     11 50 20.903377 +04 58 37.83081
 2019-Jan-05 12:23     11 50 20.909845 +04 58 37.83561
 2019-Jan-05 12:24     11 50 20.916310 +04 58 37.84041
 2019-Jan-05 12:25     11 50 20.922772 +04 58 37.84521
 2019-Jan-05 12:26     11 50 20.929232 +04 58 37.85001
 2019-Jan-05 12:27     11 50 20.935688 +04 58 37.85481
 2019-Jan-05 12:28     11 50 20.942142 +04 58 37.85961
 2019-Jan-05 12:29     11 50 20.948593 +04 58 37.86441
 2019-Jan-05 12:30     11 50 20.955042 +04 58 37.86922
 2019-Jan-05 12:31     11 50 20.961487 +04 58 37.87402
 2019-Jan-05 12:32     11 50 20.967930 +04 58 37.87882
 2019-Jan-05 12:33     11 50 20.974371 +04 58 37.88362
 2019-Jan-05 12:34     11 50 20.980808 +04 58 37.88842
 2019-Jan-05 12:35     11 50 20.987243 +04 58 37.89322
 2019-Jan-05 12:36     11 50 20.993675 +04 58 37.89802
 2019-Jan-05 12:37     11 50 21.000105 +04 58 37.90283
 2019-Jan-05 12:38     11 50 21.006532 +04 58 37.90763
 2019-Jan-05 12:39     11 50 21.012956 +04 58 37.91243
 2019-Jan-05 12:40     11 50 21.019377 +04 58 37.91723
 2019-Jan-05 12:41     11 50 21.025796 +04 58 37.92204
 2019-Jan-05 12:42     11 50 21.032213 +04 58 37.92684
 2019-Jan-05 12:43     11 50 21.038626 +04 58 37.93164
 2019-Jan-05 12:44     11 50 21.045038 +04 58 37.93644
 2019-Jan-05 12:45     11 50 21.051446 +04 58 37.94125
 2019-Jan-05 12:46     11 50 21.057852 +04 58 37.94605
 2019-Jan-05 12:47     11 50 21.064256 +04 58 37.95085
 2019-Jan-05 12:48     11 50 21.070657 +04 58 37.95566
 2019-Jan-05 12:49     11 50 21.077055 +04 58 37.96046
 2019-Jan-05 12:50     11 50 21.083451 +04 58 37.96526
 2019-Jan-05 12:51     11 50 21.089845 +04 58 37.97006
 2019-Jan-05 12:52     11 50 21.096236 +04 58 37.97487
 2019-Jan-05 12:53     11 50 21.102624 +04 58 37.97967
 2019-Jan-05 12:54     11 50 21.109010 +04 58 37.98447
 2019-Jan-05 12:55     11 50 21.115394 +04 58 37.98927
 2019-Jan-05 12:56     11 50 21.121775 +04 58 37.99408
 2019-Jan-05 12:57     11 50 21.128154 +04 58 37.99888
 2019-Jan-05 12:58     11 50 21.134530 +04 58 38.00368
 2019-Jan-05 12:59     11 50 21.140904 +04 58 38.00848
 2019-Jan-05 13:00     11 50 21.147275 +04 58 38.01329
 2019-Jan-05 13:01     11 50 21.153644 +04 58 38.01809
 2019-Jan-05 13:02     11 50 21.160011 +04 58 38.02289
 2019-Jan-05 13:03     11 50 21.166375 +04 58 38.02769
 2019-Jan-05 13:04     11 50 21.172737 +04 58 38.03249
 2019-Jan-05 13:05     11 50 21.179097 +04 58 38.03729
 2019-Jan-05 13:06     11 50 21.185455 +04 58 38.04210
 2019-Jan-05 13:07     11 50 21.191810 +04 58 38.04690
 2019-Jan-05 13:08     11 50 21.198162 +04 58 38.05170
 2019-Jan-05 13:09     11 50 21.204513 +04 58 38.05650
 2019-Jan-05 13:10     11 50 21.210861 +04 58 38.06130
 2019-Jan-05 13:11     11 50 21.217207 +04 58 38.06610
 2019-Jan-05 13:12     11 50 21.223551 +04 58 38.07090
 2019-Jan-05 13:13     11 50 21.229893 +04 58 38.07570
 2019-Jan-05 13:14     11 50 21.236232 +04 58 38.08050
 2019-Jan-05 13:15     11 50 21.242569 +04 58 38.08530
 2019-Jan-05 13:16     11 50 21.248904 +04 58 38.09009
 2019-Jan-05 13:17     11 50 21.255237 +04 58 38.09489
 2019-Jan-05 13:18     11 50 21.261567 +04 58 38.09969
 2019-Jan-05 13:19     11 50 21.267896 +04 58 38.10449
 2019-Jan-05 13:20     11 50 21.274222 +04 58 38.10929
 2019-Jan-05 13:21     11 50 21.280546 +04 58 38.11408
 2019-Jan-05 13:22     11 50 21.286868 +04 58 38.11888
 2019-Jan-05 13:23     11 50 21.293188 +04 58 38.12368
 2019-Jan-05 13:24     11 50 21.299506 +04 58 38.12847
 2019-Jan-05 13:25     11 50 21.305822 +04 58 38.13327
 2019-Jan-05 13:26     11 50 21.312136 +04 58 38.13806
 2019-Jan-05 13:27     11 50 21.318447 +04 58 38.14286
 2019-Jan-05 13:28     11 50 21.324757 +04 58 38.14765
 2019-Jan-05 13:29     11 50 21.331064 +04 58 38.15245
 2019-Jan-05 13:30     11 50 21.337370 +04 58 38.15724
 2019-Jan-05 13:31     11 50 21.343674 +04 58 38.16203
 2019-Jan-05 13:32     11 50 21.349975 +04 58 38.16683
 2019-Jan-05 13:33     11 50 21.356275 +04 58 38.17162
 2019-Jan-05 13:34     11 50 21.362573 +04 58 38.17641
 2019-Jan-05 13:35     11 50 21.368869 +04 58 38.18120
 2019-Jan-05 13:36     11 50 21.375162 +04 58 38.18600
 2019-Jan-05 13:37     11 50 21.381454 +04 58 38.19079
 2019-Jan-05 13:38     11 50 21.387744 +04 58 38.19558
 2019-Jan-05 13:39     11 50 21.394032 +04 58 38.20037
 2019-Jan-05 13:40     11 50 21.400319 +04 58 38.20516
 2019-Jan-05 13:41     11 50 21.406603 +04 58 38.20994
 2019-Jan-05 13:42     11 50 21.412886 +04 58 38.21473
 2019-Jan-05 13:43     11 50 21.419166 +04 58 38.21952
 2019-Jan-05 13:44     11 50 21.425445 +04 58 38.22431
 2019-Jan-05 13:45     11 50 21.431722 +04 58 38.22909
 2019-Jan-05 13:46     11 50 21.437998 +04 58 38.23388
 2019-Jan-05 13:47     11 50 21.444271 +04 58 38.23867
 2019-Jan-05 13:48     11 50 21.450543 +04 58 38.24345
 2019-Jan-05 13:49     11 50 21.456813 +04 58 38.24824
 2019-Jan-05 13:50     11 50 21.463081 +04 58 38.25302
 2019-Jan-05 13:51     11 50 21.469348 +04 58 38.25780
 2019-Jan-05 13:52     11 50 21.475613 +04 58 38.26259
 2019-Jan-05 13:53     11 50 21.481876 +04 58 38.26737
 2019-Jan-05 13:54     11 50 21.488137 +04 58 38.27215
 2019-Jan-05 13:55     11 50 21.494397 +04 58 38.27693
 2019-Jan-05 13:56     11 50 21.500655 +04 58 38.28171
 2019-Jan-05 13:57     11 50 21.506911 +04 58 38.28649
 2019-Jan-05 13:58     11 50 21.513166 +04 58 38.29127
 2019-Jan-05 13:59     11 50 21.519420 +04 58 38.29605
 2019-Jan-05 14:00     11 50 21.525671 +04 58 38.30083
 2019-Jan-05 14:01     11 50 21.531921 +04 58 38.30561
 2019-Jan-05 14:02     11 50 21.538170 +04 58 38.31038
 2019-Jan-05 14:03     11 50 21.544417 +04 58 38.31516
 2019-Jan-05 14:04     11 50 21.550662 +04 58 38.31994
 2019-Jan-05 14:05     11 50 21.556906 +04 58 38.32471
 2019-Jan-05 14:06     11 50 21.563148 +04 58 38.32949
 2019-Jan-05 14:07     11 50 21.569389 +04 58 38.33426
 2019-Jan-05 14:08     11 50 21.575628 +04 58 38.33903
 2019-Jan-05 14:09     11 50 21.581866 +04 58 38.34380
 2019-Jan-05 14:10     11 50 21.588102 +04 58 38.34858
 2019-Jan-05 14:11     11 50 21.594337 +04 58 38.35335
 2019-Jan-05 14:12     11 50 21.600571 +04 58 38.35812
 2019-Jan-05 14:13     11 50 21.606803 +04 58 38.36289
 2019-Jan-05 14:14     11 50 21.613034 +04 58 38.36766
 2019-Jan-05 14:15     11 50 21.619263 +04 58 38.37242
 2019-Jan-05 14:16     11 50 21.625491 +04 58 38.37719
 2019-Jan-05 14:17     11 50 21.631718 +04 58 38.38196
 2019-Jan-05 14:18     11 50 21.637943 +04 58 38.38672
 2019-Jan-05 14:19     11 50 21.644167 +04 58 38.39149
 2019-Jan-05 14:20     11 50 21.650389 +04 58 38.39625
